OBJECT_NAME,OBJECT_ID,EPOCH,MEAN_MOTION,ECCENTRICITY,INCLINATION,RA_OF_ASC_NODE,ARG_OF_PERICENTER,MEAN_ANOMALY,EPHEMERIS_TYPE,CLASSIFICATION_TYPE,NORAD_CAT_ID,ELEMENT_SET_NO,REV_AT_EPOCH,BSTAR,MEAN_MOTION_DOT,MEAN_MOTION_DDOT
SES-2,2011-049A,2026-07-18T12:48:44.232192,1.00271818,.00027692,0.1366,90.8783,23.1508,287.4812,0,U,37809,999,5427,0,-.203E-5,0
ARABSAT-5C,2011-049B,2026-07-18T13:19:11.313120,1.00272908,.00035549,0.0540,28.1381,105.9004,22.1045,0,U,37810,999,5435,0,.116E-5,0
EUTELSAT 7 WEST A,2011-051A,2026-07-18T09:46:09.805152,1.00271454,.00047522,0.0606,356.1213,132.7668,306.5290,0,U,37816,999,5419,0,-.68E-6,0
QUETZSAT 1,2011-054A,2026-07-18T15:05:38.632704,1.00271964,.00027834,0.0446,269.5616,211.9338,324.3413,0,U,37826,999,5019,0,-.249E-5,0
INTELSAT 18 (IS-18),2011-056A,2026-07-18T13:26:38.794272,1.00273001,.00018837,0.0410,235.4974,252.5767,189.9436,0,U,37834,999,5412,0,.46E-6,0
EUTELSAT 16A,2011-057A,2026-07-18T13:18:03.920256,1.00269683,.00055384,0.0435,29.2229,88.5940,34.0625,0,U,37836,999,765,0,.96E-6,0
VIASAT-1,2011-059A,2026-07-18T14:07:38.839008,1.00265970,.00021472,0.0180,54.0511,51.2592,287.8902,0,U,37843,999,4763,0,0,0
ASIASAT 7,2011-069A,2026-07-18T14:53:28.021344,1.00270718,.00013012,0.0249,76.2386,14.6007,174.4578,0,U,37933,999,4517,0,-.341E-5,0
BEIDOU-2 IGSO-5,2011-073A,2026-07-02T17:30:18.330912,1.00270596,.01145273,47.6496,271.3544,222.0502,141.5350,0,U,37948,999,5329,0,-.128E-5,0
LUCH-5A,2011-074B,2026-07-18T10:35:47.719392,1.00273768,.00027358,8.8314,73.3465,60.3850,128.4680,0,U,37951,999,5336,0,-.6E-6,0
NIGCOMSAT 1R,2011-077A,2026-07-18T13:25:40.690272,1.00272752,.00024408,0.0339,110.3960,240.1871,189.6779,0,U,38014,999,5327,0,.138E-5,0
WGS F4 (USA 233),2012-003A,2026-07-18T14:48:38.837952,1.00271541,.00004955,0.0198,51.5015,111.9891,83.4937,0,U,38070,999,4446,0,-.222E-5,0
SES-4,2012-007A,2026-07-18T09:41:55.212000,1.00272240,.00025174,0.0240,28.7977,92.3888,298.5093,0,U,38087,999,5253,0,-.176E-5,0
BEIDOU-2 G5,2012-008A,2026-07-17T23:32:38.761152,1.00271104,.00072939,3.6488,69.5023,268.9390,9.1611,0,U,38091,999,5267,0,.47E-6,0
MUOS-1,2012-009A,2026-07-18T12:44:59.591328,1.00271569,.0056624,5.5380,47.1086,3.6163,336.9063,0,U,38093,999,5275,0,-.137E-5,0
INTELSAT 22 (IS-22),2012-011A,2026-07-18T13:34:02.854848,1.00272007,.00018388,0.0197,59.1333,70.0495,82.7941,0,U,38098,999,750,0,-.66E-6,0
APSTAR-7,2012-013A,2026-07-18T13:35:17.735136,1.00271099,.00030056,0.0305,94.9899,32.7415,88.9555,0,U,38107,999,5212,0,-.108E-5,0
YAHSAT 1B,2012-016A,2026-07-18T13:27:03.058848,1.00273748,.00026453,0.0881,88.7907,29.5940,67.3393,0,U,38245,999,4592,0,.119E-5,0
AEHF-2 (USA 235),2012-019A,2026-07-18T09:43:32.557152,1.00272004,.00021696,6.7201,57.2491,62.6457,305.7162,0,U,38254,999,730,0,-.145E-5,0
JCSAT-13,2012-023A,2026-07-18T13:33:38.500416,1.00272936,.00020954,0.0188,48.4351,67.3708,147.9707,0,U,38331,999,5185,0,-.363E-5,0
VINASAT-2,2012-023B,2026-07-18T13:33:38.500416,1.00272549,.00022688,0.0191,338.3553,135.8534,157.4072,0,U,38332,999,4697,0,-.336E-5,0
NIMIQ 6,2012-026A,2026-07-18T12:47:29.351904,1.00271430,.000282,0.0623,264.5254,216.8923,275.6873,0,U,38342,999,5072,0,-.181E-5,0
ZHONGXING-2A,2012-028A,2026-07-18T16:02:52.333728,1.00269189,.00014728,1.5343,83.4796,41.1396,150.7989,0,U,38352,999,5161,0,-.3E-5,0
INTELSAT 19 (IS-19),2012-030A,2026-07-18T13:50:38.633856,1.00271971,.00029269,0.0174,52.9651,64.0061,193.0510,0,U,38356,999,5076,0,-.64E-6,0
ECHOSTAR 17,2012-035A,2026-07-18T12:01:52.242240,1.00272117,.00022488,0.0198,53.0407,60.7375,255.8837,0,U,38551,999,5137,0,-.83E-6,0
METEOSAT-10 (MSG-3),2012-035B,2026-07-18T08:05:37.320864,1.00271778,.00013021,4.7438,60.8671,16.8895,339.8317,0,U,38552,999,5116,0,-.17E-6,0
SES-5,2012-036A,2026-07-18T08:06:52.202016,1.00271541,.00019592,0.0443,322.9360,155.1766,304.7160,0,U,38652,999,4476,0,.26E-6,0
INTELSAT 20 (IS-20),2012-043A,2026-07-18T13:33:02.951136,1.00271127,.00013137,0.0140,71.0540,111.6027,25.4729,0,U,38740,999,5106,0,-.31E-6,0
HYLAS 2,2012-043B,2026-07-18T12:52:51.337056,1.00272187,.00024046,2.5065,80.6880,55.5142,280.7724,0,U,38741,999,5108,0,-.266E-5,0
INTELSAT 21 (IS-21),2012-045A,2026-07-18T12:56:58.442784,1.00272058,.00016877,0.0465,243.9441,243.5912,305.0520,0,U,38749,999,5083,0,-.292E-5,0
ASTRA 2F,2012-051A,2026-07-18T11:38:55.866912,1.00271233,.0003054,0.0802,254.9364,287.3434,316.8856,0,U,38778,999,4145,0,.142E-5,0
GSAT-10,2012-051B,2026-07-18T16:07:26.207904,1.00272778,.00075117,0.0816,264.2593,190.9699,166.1019,0,U,38779,999,5041,0,-.172E-5,0
