SES-2                   
1 37809U 11049A   26199.53384528 -.00000203  00000+0  00000+0 0  9991
2 37809   0.1366  90.8783 0002769  23.1508 287.4812  1.00271818 54271
ARABSAT-5C              
1 37810U 11049B   26199.55499205  .00000116  00000+0  00000+0 0  9996
2 37810   0.0540  28.1381 0003554 105.9004  22.1045  1.00272908 54359
EUTELSAT 7 WEST A       
1 37816U 11051A   26199.40705793 -.00000068  00000+0  00000+0 0  9998
2 37816   0.0606 356.1213 0004752 132.7668 306.5290  1.00271454 54199
QUETZSAT 1              
1 37826U 11054A   26199.62891936 -.00000249  00000+0  00000+0 0  9992
2 37826   0.0446 269.5616 0002783 211.9338 324.3413  1.00271964 50199
INTELSAT 18 (IS-18)     
1 37834U 11056A   26199.56017123  .00000046  00000+0  00000+0 0  9998
2 37834   0.0410 235.4974 0001883 252.5767 189.9436  1.00273001 54126
EUTELSAT 16A            
1 37836U 11057A   26199.55421204  .00000096  00000+0  00000+0 0  9994
2 37836   0.0435  29.2229 0005538  88.5940  34.0625  1.00269683  7655
VIASAT-1                
1 37843U 11059A   26199.58864397  .00000000  00000+0  00000+0 0  9996
2 37843   0.0180  54.0511 0002147  51.2592 287.8902  1.00265970 47636
ASIASAT 7               
1 37933U 11069A   26199.62046321 -.00000341  00000+0  00000+0 0  9990
2 37933   0.0249  76.2386 0001301  14.6007 174.4578  1.00270718 45176
BEIDOU-2 IGSO-5         
1 37948U 11073A   26183.72937883 -.00000128  00000+0  00000+0 0  9990
2 37948  47.6496 271.3544 0114527 222.0502 141.5350  1.00270596 53296
LUCH-5A                 
1 37951U 11074B   26199.44152453 -.00000060  00000+0  00000+0 0  9998
2 37951   8.8314  73.3465 0002735  60.3850 128.4680  1.00273768 53368
NIGCOMSAT 1R            
1 38014U 11077A   26199.55949873  .00000138  00000+0  00000+0 0  9999
2 38014   0.0339 110.3960 0002440 240.1871 189.6779  1.00272752 53276
WGS F4 (USA 233)        
1 38070U 12003A   26199.61711618 -.00000222  00000+0  00000+0 0  9997
2 38070   0.0198  51.5015 0000495 111.9891  83.4937  1.00271541 44466
SES-4                   
1 38087U 12007A   26199.40411125 -.00000176  00000+0  00000+0 0  9994
2 38087   0.0240  28.7977 0002517  92.3888 298.5093  1.00272240 52536
BEIDOU-2 G5             
1 38091U 12008A   26198.98100418  .00000047  00000+0  00000+0 0  9998
2 38091   3.6488  69.5023 0007293 268.9390   9.1611  1.00271104 52679
MUOS-1                  
1 38093U 12009A   26199.53124527 -.00000137  00000+0  00000+0 0  9991
2 38093   5.5380  47.1086 0056624   3.6163 336.9063  1.00271569 52754
INTELSAT 22 (IS-22)     
1 38098U 12011A   26199.56531082 -.00000066  00000+0  00000+0 0  9991
2 38098   0.0197  59.1333 0001838  70.0495  82.7941  1.00272007  7508
APSTAR-7                
1 38107U 12013A   26199.56617749 -.00000108  00000+0  00000+0 0  9996
2 38107   0.0305  94.9899 0003005  32.7415  88.9555  1.00271099 52126
YAHSAT 1B               
1 38245U 12016A   26199.56045207  .00000119  00000+0  00000+0 0  9997
2 38245   0.0881  88.7907 0002645  29.5940  67.3393  1.00273748 45929
AEHF-2 (USA 235)        
1 38254U 12019A   26199.40523793 -.00000145  00000+0  00000+0 0  9994
2 38254   6.7201  57.2491 0002169  62.6457 305.7162  1.00272004  7306
JCSAT-13                
1 38331U 12023A   26199.56502894 -.00000363  00000+0  00000+0 0  9993
2 38331   0.0188  48.4351 0002095  67.3708 147.9707  1.00272936 51853
VINASAT-2               
1 38332U 12023B   26199.56502894 -.00000336  00000+0  00000+0 0  9994
2 38332   0.0191 338.3553 0002268 135.8534 157.4072  1.00272549 46971
NIMIQ 6                 
1 38342U 12026A   26199.53297861 -.00000181  00000+0  00000+0 0  9998
2 38342   0.0623 264.5254 0002820 216.8923 275.6873  1.00271430 50724
ZHONGXING-2A            
1 38352U 12028A   26199.66866127 -.00000300  00000+0  00000+0 0  9995
2 38352   1.5343  83.4796 0001472  41.1396 150.7989  1.00269189 51612
INTELSAT 19 (IS-19)     
1 38356U 12030A   26199.57683604 -.00000064  00000+0  00000+0 0  9996
2 38356   0.0174  52.9651 0002926  64.0061 193.0510  1.00271971 50768
ECHOSTAR 17             
1 38551U 12035A   26199.50129910 -.00000083  00000+0  00000+0 0  9997
2 38551   0.0198  53.0407 0002248  60.7375 255.8837  1.00272117 51370
METEOSAT-10 (MSG-3)     
1 38552U 12035B   26199.33723751 -.00000017  00000+0  00000+0 0  9999
2 38552   4.7438  60.8671 0001302  16.8895 339.8317  1.00271778 51162
SES-5                   
1 38652U 12036A   26199.33810419  .00000026  00000+0  00000+0 0  9998
2 38652   0.0443 322.9360 0001959 155.1766 304.7160  1.00271541 44760
INTELSAT 20 (IS-20)     
1 38740U 12043A   26199.56461749 -.00000031  00000+0  00000+0 0  9994
2 38740   0.0140  71.0540 0001313 111.6027  25.4729  1.00271127 51064
HYLAS 2                 
1 38741U 12043B   26199.53670529 -.00000266  00000+0  00000+0 0  9990
2 38741   2.5065  80.6880 0002404  55.5142 280.7724  1.00272187 51087
INTELSAT 21 (IS-21)     
1 38749U 12045A   26199.53956531 -.00000292  00000+0  00000+0 0  9999
2 38749   0.0465 243.9441 0001687 243.5912 305.0520  1.00272058 50839
ASTRA 2F                
1 38778U 12051A   26199.48536883  .00000142  00000+0  00000+0 0  9999
2 38778   0.0802 254.9364 0003054 287.3434 316.8856  1.00271233 41451
GSAT-10                 
1 38779U 12051B   26199.67183111 -.00000172  00000+0  00000+0 0  9997
2 38779   0.0816 264.2593 0007511 190.9699 166.1019  1.00272778 50417
